ONEWEB-0156             
1 48052U 21025L   24102.60535013 -.00000260  00000+0 -74752-3 0  9998
2 48052  87.8897 118.7881 0002035  90.8140 269.3223 13.13470496149003
ONEWEB-0161             
1 48053U 21025M   24102.57836066  .00000303  00000+0  79386-3 0  9991
2 48053  87.8897 118.7991 0002102  97.2089 262.9279 13.13471193148930
ONEWEB-0158             
1 48054U 21025N   24102.54026342 -.00000269  00000+0 -77050-3 0  9996
2 48054  87.8894 118.7991 0001935  87.5846 272.5504 13.13471989149059
ONEWEB-0157             
1 48055U 21025P   24102.56407700  .00000267  00000+0  69559-3 0  9991
2 48055  87.8892 118.8101 0002216  91.9902 268.1481 13.13471885148999
ONEWEB-0162             
1 48056U 21025Q   24102.60374285 -.00000297  00000+0 -84751-3 0  9994
2 48056  87.8891 118.7986 0002017  89.9972 270.1388 13.13471676148977
ONEWEB-0155             
1 48057U 21025R   24102.54820927 -.00000128  00000+0 -38676-3 0  9995
2 48057  87.8893 118.8193 0001973  92.6884 267.4471 13.13471820149103
ONEWEB-0149             
1 48058U 21025S   24102.56885320  .00000320  00000+0  84138-3 0  9992
2 48058  87.8893 118.8120 0002188  86.8343 273.3037 13.13469747148915
ONEWEB-0148             
1 48059U 21025T   24102.53393483 -.00000318  00000+0 -90487-3 0  9997
2 48059  87.8899 118.8264 0002604  86.8333 273.3094 13.13470835149030
